STARLINK-35743          
1 66578U 25268X   25339.91670139 -.01946444  00000+0 -21859-1 0  9992
2 66578  42.9998 161.2105 0001628 279.6435 161.2198 15.64957730  3574
STARLINK-35868          
1 66579U 25268Y   25339.91670139 -.01949534  00000+0 -21896-1 0  9997
2 66579  42.9997 161.2054 0001657 280.3463 162.4322 15.64960371  3576
STARLINK-35872          
1 66580U 25268Z   25339.91670139 -.01948325  00000+0 -21883-1 0  9992
2 66580  42.9997 161.2011 0001582 279.7980 164.9007 15.64958161  3575
STARLINK-35744          
1 66581U 25268AA  25339.91670139 -.01949706  00000+0 -21899-1 0  9994
2 66581  42.9998 161.1953 0001616 280.7961 165.8183 15.64959783  3521
STARLINK-35746          
1 66582U 25268AB  25339.91670139 -.01947505  00000+0 -21873-1 0  9992
2 66582  42.9996 161.1906 0001633 280.3420 168.1900 15.64957972  3579
STARLINK-35941          
1 66583U 25268AC  25339.91670139 -.01946052  00000+0 -21854-1 0  9998
2 66583  42.9997 161.1859 0001613 280.9311 169.5168 15.64957861  3579
STARLINK-35939          
1 66584U 25268AD  25339.91670139 -.01953459  00000+0 -21946-1 0  9990
2 66584  42.9998 161.1814 0001585 280.8042 171.5615 15.64961745  3576
STARLINK-35963          
1 66585U 25268AE  25339.91670139 -.01950636  00000+0 -21918-1 0  9994
2 66585  42.9999 161.1769 0001525 275.4927 178.8033 15.64952553  3574
TJS-21                  
1 66586U 25269A   25339.24566365  .00001125  00000+0 -17799-1 0  9997
2 66586  63.2734 163.1383 6805128 269.8052  18.6619  2.00559462   290
CZ-3B R/B               
1 66587U 25269B   25336.42831525  .00047329 -24560-6  19543-2 0  9998
2 66587  51.3575 172.0321 7520347 226.8728  39.3228  2.02231820   242
STARLINK-36076          
1 66588U 25270A   25339.91670139 -.01937829  00000+0 -16734-1 0  9999
2 66588  42.9985 233.0855 0001324 258.6094 335.4299 15.71283700  3307
STARLINK-35447          
1 66589U 25270B   25339.91670139 -.01939158  00000+0 -16745-1 0  9999
2 66589  42.9986 233.0757 0001427 255.4697 342.4026 15.71284695  3410
