CCSDS_OMM_VERS = 2.0
CREATION_DATE  = 
ORIGINATOR     = 

OBJECT_NAME    = STARLINK-35743
OBJECT_ID      = 2025-268X
CENTER_NAME    = EARTH
REF_FRAME      = TEME
TIME_SYSTEM    = UTC
MEAN_ELEMENT_THEORY = SGP/SGP4

EPOCH          = 2025-12-05T22:00:03.000096
MEAN_MOTION    = 15.64957730
ECCENTRICITY   = .00016289
INCLINATION    = 42.9998
RA_OF_ASC_NODE = 161.2105
ARG_OF_PERICENTER = 279.6435
MEAN_ANOMALY   = 161.2198

EPHEMERIS_TYPE = 0
CLASSIFICATION_TYPE = U
NORAD_CAT_ID   = 66578
ELEMENT_SET_NO = 999
REV_AT_EPOCH   = 357
BSTAR          = -.21859464E-1
MEAN_MOTION_DOT = -.1946444E-1
MEAN_MOTION_DDOT = 0

CCSDS_OMM_VERS = 2.0
CREATION_DATE  = 
ORIGINATOR     = 

OBJECT_NAME    = STARLINK-35868
OBJECT_ID      = 2025-268Y
CENTER_NAME    = EARTH
REF_FRAME      = TEME
TIME_SYSTEM    = UTC
MEAN_ELEMENT_THEORY = SGP/SGP4

EPOCH          = 2025-12-05T22:00:03.000096
MEAN_MOTION    = 15.64960371
ECCENTRICITY   = .00016576
INCLINATION    = 42.9997
RA_OF_ASC_NODE = 161.2054
ARG_OF_PERICENTER = 280.3463
MEAN_ANOMALY   = 162.4322

EPHEMERIS_TYPE = 0
CLASSIFICATION_TYPE = U
NORAD_CAT_ID   = 66579
ELEMENT_SET_NO = 999
REV_AT_EPOCH   = 357
BSTAR          = -.21896201E-1
MEAN_MOTION_DOT = -.1949534E-1
MEAN_MOTION_DDOT = 0

CCSDS_OMM_VERS = 2.0
CREATION_DATE  = 
ORIGINATOR     = 

OBJECT_NAME    = STARLINK-35872
OBJECT_ID      = 2025-268Z
CENTER_NAME    = EARTH
REF_FRAME      = TEME
TIME_SYSTEM    = UTC
MEAN_ELEMENT_THEORY = SGP/SGP4

EPOCH          = 2025-12-05T22:00:03.000096
MEAN_MOTION    = 15.64958161
ECCENTRICITY   = .00015821
INCLINATION    = 42.9997
RA_OF_ASC_NODE = 161.2011
ARG_OF_PERICENTER = 279.7980
MEAN_ANOMALY   = 164.9007

EPHEMERIS_TYPE = 0
CLASSIFICATION_TYPE = U
NORAD_CAT_ID   = 66580
ELEMENT_SET_NO = 999
REV_AT_EPOCH   = 357
BSTAR          = -.21883478E-1
MEAN_MOTION_DOT = -.1948325E-1
MEAN_MOTION_DDOT = 0

CCSDS_OMM_VERS = 2.0
CREATION_DATE  = 
ORIGINATOR     = 

OBJECT_NAME    = STARLINK-35744
OBJECT_ID      = 2025-268AA
CENTER_NAME    = EARTH
REF_FRAME      = TEME
TIME_SYSTEM    = UTC
MEAN_ELEMENT_THEORY = SGP/SGP4

EPOCH          = 2025-12-05T22:00:03.000096
MEAN_MOTION    = 15.64959783
ECCENTRICITY   = .00016163
INCLINATION    = 42.9998
RA_OF_ASC_NODE = 161.1953
ARG_OF_PERICENTER = 280.7961
MEAN_ANOMALY   = 165.8183

EPHEMERIS_TYPE = 0
CLASSIFICATION_TYPE = U
NORAD_CAT_ID   = 66581
ELEMENT_SET_NO = 999
REV_AT_EPOCH   = 352
BSTAR          = -.21899316E-1
MEAN_MOTION_DOT = -.1949706E-1
MEAN_MOTION_DDOT = 0

CCSDS_OMM_VERS = 2.0
CREATION_DATE  = 
ORIGINATOR     = 

OBJECT_NAME    = STARLINK-35746
OBJECT_ID      = 2025-268AB
CENTER_NAME    = EARTH
REF_FRAME      = TEME
TIME_SYSTEM    = UTC
MEAN_ELEMENT_THEORY = SGP/SGP4

EPOCH          = 2025-12-05T22:00:03.000096
MEAN_MOTION    = 15.64957972
ECCENTRICITY   = .00016333
INCLINATION    = 42.9996
RA_OF_ASC_NODE = 161.1906
ARG_OF_PERICENTER = 280.3420
MEAN_ANOMALY   = 168.1900

EPHEMERIS_TYPE = 0
CLASSIFICATION_TYPE = U
NORAD_CAT_ID   = 66582
ELEMENT_SET_NO = 999
REV_AT_EPOCH   = 357
BSTAR          = -.21872706E-1
MEAN_MOTION_DOT = -.1947505E-1
MEAN_MOTION_DDOT = 0

CCSDS_OMM_VERS = 2.0
CREATION_DATE  = 
ORIGINATOR     = 

OBJECT_NAME    = STARLINK-35941
OBJECT_ID      = 2025-268AC
CENTER_NAME    = EARTH
REF_FRAME      = TEME
TIME_SYSTEM    = UTC
MEAN_ELEMENT_THEORY = SGP/SGP4

EPOCH          = 2025-12-05T22:00:03.000096
MEAN_MOTION    = 15.64957861
ECCENTRICITY   = .00016138
INCLINATION    = 42.9997
RA_OF_ASC_NODE = 161.1859
ARG_OF_PERICENTER = 280.9311
MEAN_ANOMALY   = 169.5168

EPHEMERIS_TYPE = 0
CLASSIFICATION_TYPE = U
NORAD_CAT_ID   = 66583
ELEMENT_SET_NO = 999
REV_AT_EPOCH   = 357
BSTAR          = -.21854488E-1
MEAN_MOTION_DOT = -.1946052E-1
MEAN_MOTION_DDOT = 0

CCSDS_OMM_VERS = 2.0
CREATION_DATE  = 
ORIGINATOR     = 

OBJECT_NAME    = STARLINK-35939
OBJECT_ID      = 2025-268AD
CENTER_NAME    = EARTH
REF_FRAME      = TEME
TIME_SYSTEM    = UTC
MEAN_ELEMENT_THEORY = SGP/SGP4

EPOCH          = 2025-12-05T22:00:03.000096
MEAN_MOTION    = 15.64961745
ECCENTRICITY   = .00015852
INCLINATION    = 42.9998
RA_OF_ASC_NODE = 161.1814
ARG_OF_PERICENTER = 280.8042
MEAN_ANOMALY   = 171.5615

EPHEMERIS_TYPE = 0
CLASSIFICATION_TYPE = U
NORAD_CAT_ID   = 66584
ELEMENT_SET_NO = 999
REV_AT_EPOCH   = 357
BSTAR          = -.21945703E-1
MEAN_MOTION_DOT = -.1953459E-1
MEAN_MOTION_DDOT = 0

CCSDS_OMM_VERS = 2.0
CREATION_DATE  = 
ORIGINATOR     = 

OBJECT_NAME    = STARLINK-35963
OBJECT_ID      = 2025-268AE
CENTER_NAME    = EARTH
REF_FRAME      = TEME
TIME_SYSTEM    = UTC
MEAN_ELEMENT_THEORY = SGP/SGP4

EPOCH          = 2025-12-05T22:00:03.000096
MEAN_MOTION    = 15.64952553
ECCENTRICITY   = .00015255
INCLINATION    = 42.9999
RA_OF_ASC_NODE = 161.1769
ARG_OF_PERICENTER = 275.4927
MEAN_ANOMALY   = 178.8033

EPHEMERIS_TYPE = 0
CLASSIFICATION_TYPE = U
NORAD_CAT_ID   = 66585
ELEMENT_SET_NO = 999
REV_AT_EPOCH   = 357
BSTAR          = -.21918417E-1
MEAN_MOTION_DOT = -.1950636E-1
MEAN_MOTION_DDOT = 0

CCSDS_OMM_VERS = 2.0
CREATION_DATE  = 
ORIGINATOR     = 

OBJECT_NAME    = TJS-21
OBJECT_ID      = 2025-269A
CENTER_NAME    = EARTH
REF_FRAME      = TEME
TIME_SYSTEM    = UTC
MEAN_ELEMENT_THEORY = SGP/SGP4

EPOCH          = 2025-12-05T05:53:45.339360
MEAN_MOTION    = 2.00559462
ECCENTRICITY   = .68051288
INCLINATION    = 63.2734
RA_OF_ASC_NODE = 163.1383
ARG_OF_PERICENTER = 269.8052
MEAN_ANOMALY   = 18.6619

EPHEMERIS_TYPE = 0
CLASSIFICATION_TYPE = U
NORAD_CAT_ID   = 66586
ELEMENT_SET_NO = 999
REV_AT_EPOCH   = 29
BSTAR          = -.17798837E-1
MEAN_MOTION_DOT = .1125E-4
MEAN_MOTION_DDOT = 0

CCSDS_OMM_VERS = 2.0
CREATION_DATE  = 
ORIGINATOR     = 

OBJECT_NAME    = CZ-3B R/B
OBJECT_ID      = 2025-269B
CENTER_NAME    = EARTH
REF_FRAME      = TEME
TIME_SYSTEM    = UTC
MEAN_ELEMENT_THEORY = SGP/SGP4

EPOCH          = 2025-12-02T10:16:46.437600
MEAN_MOTION    = 2.02231820
ECCENTRICITY   = .75203475
INCLINATION    = 51.3575
RA_OF_ASC_NODE = 172.0321
ARG_OF_PERICENTER = 226.8728
MEAN_ANOMALY   = 39.3228

EPHEMERIS_TYPE = 0
CLASSIFICATION_TYPE = U
NORAD_CAT_ID   = 66587
ELEMENT_SET_NO = 999
REV_AT_EPOCH   = 24
BSTAR          = .19543247E-2
MEAN_MOTION_DOT = .47329E-3
MEAN_MOTION_DDOT = -.245602E-6

CCSDS_OMM_VERS = 2.0
CREATION_DATE  = 
ORIGINATOR     = 

OBJECT_NAME    = STARLINK-36076
OBJECT_ID      = 2025-270A
CENTER_NAME    = EARTH
REF_FRAME      = TEME
TIME_SYSTEM    = UTC
MEAN_ELEMENT_THEORY = SGP/SGP4

EPOCH          = 2025-12-05T22:00:03.000096
MEAN_MOTION    = 15.71283700
ECCENTRICITY   = .0001324
INCLINATION    = 42.9985
RA_OF_ASC_NODE = 233.0855
ARG_OF_PERICENTER = 258.6094
MEAN_ANOMALY   = 335.4299

EPHEMERIS_TYPE = 0
CLASSIFICATION_TYPE = U
NORAD_CAT_ID   = 66588
ELEMENT_SET_NO = 999
REV_AT_EPOCH   = 330
BSTAR          = -.16733547E-1
MEAN_MOTION_DOT = -.1937829E-1
MEAN_MOTION_DDOT = 0

CCSDS_OMM_VERS = 2.0
CREATION_DATE  = 
ORIGINATOR     = 

OBJECT_NAME    = STARLINK-35447
OBJECT_ID      = 2025-270B
CENTER_NAME    = EARTH
REF_FRAME      = TEME
TIME_SYSTEM    = UTC
MEAN_ELEMENT_THEORY = SGP/SGP4

EPOCH          = 2025-12-05T22:00:03.000096
MEAN_MOTION    = 15.71284695
ECCENTRICITY   = .00014279
INCLINATION    = 42.9986
RA_OF_ASC_NODE = 233.0757
ARG_OF_PERICENTER = 255.4697
MEAN_ANOMALY   = 342.4026

EPHEMERIS_TYPE = 0
CLASSIFICATION_TYPE = U
NORAD_CAT_ID   = 66589
ELEMENT_SET_NO = 999
REV_AT_EPOCH   = 341
BSTAR          = -.1674502E-1
MEAN_MOTION_DOT = -.1939158E-1
MEAN_MOTION_DDOT = 0

